{"type": "FeatureCollection", "features": [ {"type": "Feature", "properties": {"norad_id": 29795, "name": "FENGYUN 1C DEB", "group": "fengyun-1c-debris", "lat": -59.66500518122844, "lon": 128.1979771009119, "alt_km": 846.5897056644071, "timestamp": "2025-12-09T04:51:47.764637+00:00", "meta": {"OBJECT_NAME": "FENGYUN 1C DEB", "OBJECT_ID": "1999-025CM", "EPOCH": "2025-12-08T15:25:08.474016", "MEAN_MOTION": 13.92906433, "ECCENTRICITY": 0.0111057, "INCLINATION": 98.8702, "RA_OF_ASC_NODE": 112.1836, "ARG_OF_PERICENTER": 287.54, "MEAN_ANOMALY": 83.9087, "EPHEMERIS_TYPE": 0, "CLASSIFICATION_TYPE": "U", "NORAD_CAT_ID": 29795, "ELEMENT_SET_NO": 999, "REV_AT_EPOCH": 96008, "BSTAR": 0.00036686, "MEAN_MOTION_DOT": 4.58e-06, "MEAN_MOTION_DDOT": 0}, "tle": {"line1": "1 29795U 99025CM  25342.64245919  .00000458  00000+0  36686-3 0  9991", "line2": "2 29795  98.8702 112.1836 0111057 287.5400  83.9087 13.92906433960089"}}, "geometry": {"type": "Point", "coordinates": [128.1979771009119, -59.66500518122844]}}, {"type": "Feature", "properties": {"norad_id": 29796, "name": "FENGYUN 1C DEB", "group": "fengyun-1c-debris", "lat": 35.46355800282461, "lon": 28.730709513454524, "alt_km": 866.3513789672943, "timestamp": "2025-12-09T04:51:47.764647+00:00", "meta": {"OBJECT_NAME": "FENGYUN 1C DEB", "OBJECT_ID": "1999-025CN", "EPOCH": "2025-12-08T10:04:08.909184", "MEAN_MOTION": 14.12321541, "ECCENTRICITY": 0.00517291, "INCLINATION": 98.8651, "RA_OF_ASC_NODE": 34.3393, "ARG_OF_PERICENTER": 280.2983, "MEAN_ANOMALY": 95.9355, "EPHEMERIS_TYPE": 0, "CLASSIFICATION_TYPE": "U", "NORAD_CAT_ID": 29796, "ELEMENT_SET_NO": 999, "REV_AT_EPOCH": 97000, "BSTAR": 0.0011315814, "MEAN_MOTION_DOT": 2.066e-05, "MEAN_MOTION_DDOT": 0}, "tle": {"line1": "1 29796U 99025CN  25342.41954756  .00002066  00000+0  11316-2 0  9992", "line2": "2 29796  98.8651  34.3393 0051729 280.2983  95.9355 14.12321541970009"}}, "geometry": {"type": "Point", "coordinates": [28.730709513454524, 35.46355800282461]}}, {"type": "Feature", "properties": {"norad_id": 29798, "name": "FENGYUN 1C DEB", "group": "fengyun-1c-debris", "lat": -17.62034132321806, "lon": -135.927877574117, "alt_km": 891.4036583222633, "timestamp": "2025-12-09T04:51:47.764657+00:00", "meta": {"OBJECT_NAME": "FENGYUN 1C DEB", "OBJECT_ID": "1999-025CQ", "EPOCH": "2025-12-08T11:04:45.258816", "MEAN_MOTION": 13.99543086, "ECCENTRICITY": 0.01114422, "INCLINATION": 99.295, "RA_OF_ASC_NODE": 46.3016, "ARG_OF_PERICENTER": 284.1687, "MEAN_ANOMALY": 143.4434, "EPHEMERIS_TYPE": 0, "CLASSIFICATION_TYPE": "U", "NORAD_CAT_ID": 29798, "ELEMENT_SET_NO": 999, "REV_AT_EPOCH": 95865, "BSTAR": 0.0020784145, "MEAN_MOTION_DOT": 3.153e-05, "MEAN_MOTION_DDOT": 0}, "tle": {"line1": "1 29798U 99025CQ  25342.46163494  .00003153  00000+0  20784-2 0  9997", "line2": "2 29798  99.2950  46.3016 0111442 284.1687 143.4434 13.99543086958654"}}, "geometry": {"type": "Point", "coordinates": [-135.927877574117, -17.62034132321806]}}, {"type": "Feature", "properties": {"norad_id": 29800, "name": "FENGYUN 1C DEB", "group": "fengyun-1c-debris", "lat": 20.364658639813037, "lon": 2.0476449966901136, "alt_km": 976.354490070431, "timestamp": "2025-12-09T04:51:47.764667+00:00", "meta": {"OBJECT_NAME": "FENGYUN 1C DEB", "OBJECT_ID": "1999-025CS", "EPOCH": "2025-12-08T13:56:45.731040", "MEAN_MOTION": 13.98531063, "ECCENTRICITY": 0.0133412, "INCLINATION": 98.289, "RA_OF_ASC_NODE": 4.5874, "ARG_OF_PERICENTER": 238.9732, "MEAN_ANOMALY": 253.2153, "EPHEMERIS_TYPE": 0, "CLASSIFICATION_TYPE": "U", "NORAD_CAT_ID": 29800, "ELEMENT_SET_NO": 999, "REV_AT_EPOCH": 95518, "BSTAR": 0.0027951, "MEAN_MOTION_DOT": 4.284e-05, "MEAN_MOTION_DDOT": 0}, "tle": {"line1": "1 29800U 99025CS  25342.58108485  .00004284  00000+0  27951-2 0  9992", "line2": "2 29800  98.2890   4.5874 0133412 238.9732 253.2153 13.98531063955181"}}, "geometry": {"type": "Point", "coordinates": [2.0476449966901136, 20.364658639813037]}}, {"type": "Feature", "properties": {"norad_id": 29801, "name": "FENGYUN 1C DEB", "group": "fengyun-1c-debris", "lat": -8.270473454037441, "lon": 62.864677857542084, "alt_km": 774.9127342649435, "timestamp": "2025-12-09T04:51:47.764678+00:00", "meta": {"OBJECT_NAME": "FENGYUN 1C DEB", "OBJECT_ID": "1999-025CT", "EPOCH": "2025-12-08T16:23:24.454752", "MEAN_MOTION": 14.35889915, "ECCENTRICITY": 0.0102892, "INCLINATION": 98.7949, "RA_OF_ASC_NODE": 243.6241, "ARG_OF_PERICENTER": 279.4845, "MEAN_ANOMALY": 104.9681, "EPHEMERIS_TYPE": 0, "CLASSIFICATION_TYPE": "U", "NORAD_CAT_ID": 29801, "ELEMENT_SET_NO": 999, "REV_AT_EPOCH": 98883, "BSTAR": 0.00038969, "MEAN_MOTION_DOT": 1.151e-05, "MEAN_MOTION_DDOT": 0}, "tle": {"line1": "1 29801U 99025CT  25342.68292193  .00001151  00000+0  38969-3 0  9996", "line2": "2 29801  98.7949 243.6241 0102892 279.4845 104.9681 14.35889915988839"}}, "geometry": {"type": "Point", "coordinates": [62.864677857542084, -8.270473454037441]}}, {"type": "Feature", "properties": {"norad_id": 29802, "name": "FENGYUN 1C DEB", "group": "fengyun-1c-debris", "lat": -16.443550853942924, "lon": -90.4015456893379, "alt_km": 714.3917609468463, "timestamp": "2025-12-09T04:51:47.764688+00:00", "meta": {"OBJECT_NAME": "FENGYUN 1C DEB", "OBJECT_ID": "1999-025CU", "EPOCH": "2025-12-08T06:51:37.059840", "MEAN_MOTION": 14.62132017, "ECCENTRICITY": 0.00369533, "INCLINATION": 98.6198, "RA_OF_ASC_NODE": 91.2085, "ARG_OF_PERICENTER": 352.8876, "MEAN_ANOMALY": 60.9164, "EPHEMERIS_TYPE": 0, "CLASSIFICATION_TYPE": "U", "NORAD_CAT_ID": 29802, "ELEMENT_SET_NO": 999, "REV_AT_EPOCH": 98408, "BSTAR": 0.0033221872, "MEAN_MOTION_DOT": 0.00016854, "MEAN_MOTION_DDOT": 0}, "tle": {"line1": "1 29802U 99025CU  25342.28584560  .00016854  00000+0  33222-2 0  9997", "line2": "2 29802  98.6198  91.2085 0036953 352.8876  60.9164 14.62132017984086"}}, "geometry": {"type": "Point", "coordinates": [-90.4015456893379, -16.443550853942924]}}, {"type": "Feature", "properties": {"norad_id": 29804, "name": "FENGYUN 1C DEB", "group": "fengyun-1c-debris", "lat": -2.7010977134975747, "lon": 171.10026172113024, "alt_km": 926.3455448357563, "timestamp": "2025-12-09T04:51:47.764698+00:00", "meta": {"OBJECT_NAME": "FENGYUN 1C DEB", "OBJECT_ID": "1999-025CW", "EPOCH": "2025-12-08T18:35:02.391072", "MEAN_MOTION": 14.04320132, "ECCENTRICITY": 0.0097351, "INCLINATION": 98.8053, "RA_OF_ASC_NODE": 351.104, "ARG_OF_PERICENTER": 313.0079, "MEAN_ANOMALY": 226.368, "EPHEMERIS_TYPE": 0, "CLASSIFICATION_TYPE": "U", "NORAD_CAT_ID": 29804, "ELEMENT_SET_NO": 999, "REV_AT_EPOCH": 96838, "BSTAR": 0.00028078, "MEAN_MOTION_DOT": 4.22e-06, "MEAN_MOTION_DDOT": 0}, "tle": {"line1": "1 29804U 99025CW  25342.77433323  .00000422  00000+0  28078-3 0  9991", "line2": "2 29804  98.8053 351.1040 0097351 313.0079 226.3680 14.04320132968381"}}, "geometry": {"type": "Point", "coordinates": [171.10026172113024, -2.7010977134975747]}}, {"type": "Feature", "properties": {"norad_id": 29805, "name": "FENGYUN 1C DEB", "group": "fengyun-1c-debris", "lat": 28.011505158398602, "lon": 29.432999472448284, "alt_km": 1107.3546109946083, "timestamp": "2025-12-09T04:51:47.764708+00:00", "meta": {"OBJECT_NAME": "FENGYUN 1C DEB", "OBJECT_ID": "1999-025CX", "EPOCH": "2025-12-08T14:43:35.567904", "MEAN_MOTION": 13.72655061, "ECCENTRICITY": 0.018787, "INCLINATION": 99.4557, "RA_OF_ASC_NODE": 33.9376, "ARG_OF_PERICENTER": 240.5316, "MEAN_ANOMALY": 117.6974, "EPHEMERIS_TYPE": 0, "CLASSIFICATION_TYPE": "U", "NORAD_CAT_ID": 29805, "ELEMENT_SET_NO": 999, "REV_AT_EPOCH": 94646, "BSTAR": 0.00030367, "MEAN_MOTION_DOT": 2.71e-06, "MEAN_MOTION_DDOT": 0}, "tle": {"line1": "1 29805U 99025CX  25342.61360611  .00000271  00000+0  30367-3 0  9990", "line2": "2 29805  99.4557  33.9376 0187870 240.5316 117.6974 13.72655061946468"}}, "geometry": {"type": "Point", "coordinates": [29.432999472448284, 28.011505158398602]}}, {"type": "Feature", "properties": {"norad_id": 29806, "name": "FENGYUN 1C DEB", "group": "fengyun-1c-debris", "lat": 80.4320810255642, "lon": -115.43650786450219, "alt_km": 864.6009749215182, "timestamp": "2025-12-09T04:51:47.764718+00:00", "meta": {"OBJECT_NAME": "FENGYUN 1C DEB", "OBJECT_ID": "1999-025CY", "EPOCH": "2025-12-08T20:30:19.154304", "MEAN_MOTION": 14.11996286, "ECCENTRICITY": 0.0027515, "INCLINATION": 98.7129, "RA_OF_ASC_NODE": 358.7543, "ARG_OF_PERICENTER": 263.298, "MEAN_ANOMALY": 221.4959, "EPHEMERIS_TYPE": 0, "CLASSIFICATION_TYPE": "U", "NORAD_CAT_ID": 29806, "ELEMENT_SET_NO": 999, "REV_AT_EPOCH": 97084, "BSTAR": 0.00096257, "MEAN_MOTION_DOT": 1.725e-05, "MEAN_MOTION_DDOT": 0}, "tle": {"line1": "1 29806U 99025CY  25342.85438836  .00001725  00000+0  96257-3 0  9997", "line2": "2 29806  98.7129 358.7543 0027515 263.2980 221.4959 14.11996286970845"}}, "geometry": {"type": "Point", "coordinates": [-115.43650786450219, 80.4320810255642]}}, {"type": "Feature", "properties": {"norad_id": 29807, "name": "FENGYUN 1C DEB", "group": "fengyun-1c-debris", "lat": -19.446187794501625, "lon": 164.80749134767174, "alt_km": 914.6383778749805, "timestamp": "2025-12-09T04:51:47.764728+00:00", "meta": {"OBJECT_NAME": "FENGYUN 1C DEB", "OBJECT_ID": "1999-025CZ", "EPOCH": "2025-12-08T17:41:12.022944", "MEAN_MOTION": 14.08652444, "ECCENTRICITY": 0.0079731, "INCLINATION": 98.7547, "RA_OF_ASC_NODE": 347.4741, "ARG_OF_PERICENTER": 343.3145, "MEAN_ANOMALY": 16.5404, "EPHEMERIS_TYPE": 0, "CLASSIFICATION_TYPE": "U", "NORAD_CAT_ID": 29807, "ELEMENT_SET_NO": 999, "REV_AT_EPOCH": 97038, "BSTAR": 0.00053898, "MEAN_MOTION_DOT": 9.12e-06, "MEAN_MOTION_DDOT": 0}, "tle": {"line1": "1 29807U 99025CZ  25342.73694471  .00000912  00000+0  53898-3 0  9995", "line2": "2 29807  98.7547 347.4741 0079731 343.3145  16.5404 14.08652444970383"}}, "geometry": {"type": "Point", "coordinates": [164.80749134767174, -19.446187794501625]}}]}